SOYUZ-MS 28             
1 66664U 25275A   26004.75849265  .00010439  00000+0  19662-3 0  9990
2 66664  51.6325  28.5008 0007565 340.7123  19.3578 15.49095636  1280
1998-067XS              
1 66906U 98067XS  26004.59944056  .00024524  00000+0  40723-3 0  9996
2 66906  51.6316  28.9400 0002453 323.1367  36.9454 15.51948769  5161
1998-067XT              
1 66907U 98067XT  26004.24958675  .00076582  00000+0  11247-2 0  9990
2 66907  51.6312  30.3541 0003955   4.3130 355.7894 15.54802766  5119
1998-067XU              
1 66908U 98067XU  26004.31280331  .00081416  00000+0  11949-2 0  9997
2 66908  51.6309  30.0253 0003885   1.5182 358.5819 15.54794755  5128
SILVERSAT               
1 66909U 98067XV  26004.43699001  .00087269  00000+0  12537-2 0  9995
2 66909  51.6312  29.3551 0003993  10.2921 349.8151 15.55345299  5143
1998-067XW              
1 66910U 98067XW  26004.43641745  .00081743  00000+0  11864-2 0  9992
2 66910  51.6300  29.3498 0003098 343.2651  16.8237 15.55100222  5148
1998-067XX              
1 66911U 98067XX  26004.36372258  .00094322  00000+0  13230-2 0  9991
2 66911  51.6307  29.6157 0003059 357.0626   3.0347 15.55963050  5127
1998-067XY              
1 66912U 98067XY  26004.77428068  .00060327  00000+0  92208-3 0  9999
2 66912  51.6318  27.8582 0003766 354.7054   5.3896 15.53809565  5184
